STARLINK-36295          
1 68667U 26077F   26112.54692508  .00114119  00000+0  75498-3 0  9998
2 68667  97.2837 343.5934 0002325  41.5656 318.5786 15.75213048  1815
